[
    {
        "Altitude(m)": 702999.2330574066,
        "Argument of Periapsis(deg)": 0.010251109067964361,
        "Eccentricity": 0.0,
        "Inclination(deg)": 45.0,
        "Latitude(deg)": 4.184147874978514,
        "Longitude(deg)": -114.86625274746024,
        "Mean Anomaly(deg)": 174.01629498273275,
        "RAAN(deg)": 169.99032325268763,
        "Satellite Name": "Constellation 1 758",
        "Satellite Number": 758,
        "Semi-Major Axis(m)": 7083131.272910544,
        "Time(s)": 171
    },
    {
        "Altitude(m)": 703002.8337553594,
        "Argument of Periapsis(deg)": 0.010311057074209765,
        "Eccentricity": 0.0,
        "Inclination(deg)": 45.0,
        "Latitude(deg)": 4.141041795464332,
        "Longitude(deg)": -114.82727260822074,
        "Mean Anomaly(deg)": 174.07699612298265,
        "RAAN(deg)": 169.99026666352205,
        "Satellite Name": "Constellation 1 758",
        "Satellite Number": 758,
        "Semi-Major Axis(m)": 7083131.272910544,
        "Time(s)": 172
    },
    {
        "Altitude(m)": 703006.4552769068,
        "Argument of Periapsis(deg)": 0.010371005080455171,
        "Eccentricity": 0.0,
        "Inclination(deg)": 45.0,
        "Latitude(deg)": 4.097933378598703,
        "Longitude(deg)": -114.78829718644887,
        "Mean Anomaly(deg)": 174.13769726323258,
        "RAAN(deg)": 169.99021007435647,
        "Satellite Name": "Constellation 1 758",
        "Satellite Number": 758,
        "Semi-Major Axis(m)": 7083131.272910544,
        "Time(s)": 173
    },
    {
        "Altitude(m)": 703010.0976245666,
        "Argument of Periapsis(deg)": 0.010430953086700577,
        "Eccentricity": 0.0,
        "Inclination(deg)": 45.0,
        "Latitude(deg)": 4.054822649762336,
        "Longitude(deg)": -114.74932643332026,
        "Mean Anomaly(deg)": 174.19839840348243,
        "RAAN(deg)": 169.99015348519092,
        "Satellite Name": "Constellation 1 758",
        "Satellite Number": 758,
        "Semi-Major Axis(m)": 7083131.272910544,
        "Time(s)": 174
    },
    {
        "Altitude(m)": 703013.76080074,
        "Argument of Periapsis(deg)": 0.010490901092945983,
        "Eccentricity": 0.0,
        "Inclination(deg)": 45.0,
        "Latitude(deg)": 4.0117096343266985,
        "Longitude(deg)": -114.71036030002102,
        "Mean Anomaly(deg)": 174.2590995437324,
        "RAAN(deg)": 169.99009689602534,
        "Satellite Name": "Constellation 1 758",
        "Satellite Number": 758,
        "Semi-Major Axis(m)": 7083131.272910544,
        "Time(s)": 175
    },
    {
        "Altitude(m)": 703017.4448077577,
        "Argument of Periapsis(deg)": 0.010550849099191389,
        "Eccentricity": 0.0,
        "Inclination(deg)": 45.0,
        "Latitude(deg)": 3.968594357654553,
        "Longitude(deg)": -114.67139873774775,
        "Mean Anomaly(deg)": 174.31980068398227,
        "RAAN(deg)": 169.99004030685978,
        "Satellite Name": "Constellation 1 758",
        "Satellite Number": 758,
        "Semi-Major Axis(m)": 7083131.272910544,
        "Time(s)": 176
    },
    {
        "Altitude(m)": 703021.1496478484,
        "Argument of Periapsis(deg)": 0.010610797105436795,
        "Eccentricity": 0.0,
        "Inclination(deg)": 45.0,
        "Latitude(deg)": 3.9254768450997584,
        "Longitude(deg)": -114.63244169770739,
        "Mean Anomaly(deg)": 174.38050182423217,
        "RAAN(deg)": 169.98998371769423,
        "Satellite Name": "Constellation 1 758",
        "Satellite Number": 758,
        "Semi-Major Axis(m)": 7083131.272910544,
        "Time(s)": 177
    },
    {
        "Altitude(m)": 703024.8753231432,
        "Argument of Periapsis(deg)": 0.0106707451116822,
        "Eccentricity": 0.0,
        "Inclination(deg)": 45.0,
        "Latitude(deg)": 3.8823571220076984,
        "Longitude(deg)": -114.59348929921413,
        "Mean Anomaly(deg)": 174.44120296448202,
        "RAAN(deg)": 169.98992712852862,
        "Satellite Name": "Constellation 1 758",
        "Satellite Number": 758,
        "Semi-Major Axis(m)": 7083131.272910544,
        "Time(s)": 178
    },
    {
        "Altitude(m)": 703028.6218356814,
        "Argument of Periapsis(deg)": 0.010730693117927606,
        "Eccentricity": 0.0,
        "Inclination(deg)": 45.0,
        "Latitude(deg)": 3.839235213714419,
        "Longitude(deg)": -114.55454115730099,
        "Mean Anomaly(deg)": 174.50190410473198,
        "RAAN(deg)": 169.98987053936307,
        "Satellite Name": "Constellation 1 758",
        "Satellite Number": 758,
        "Semi-Major Axis(m)": 7083131.272910544,
        "Time(s)": 179
    },
    {
        "Altitude(m)": 703032.3891874235,
        "Argument of Periapsis(deg)": 0.01079064112417301,
        "Eccentricity": 0.0,
        "Inclination(deg)": 45.0,
        "Latitude(deg)": 3.7961111455482803,
        "Longitude(deg)": -114.51559739130255,
        "Mean Anomaly(deg)": 174.56260524498182,
        "RAAN(deg)": 169.9898139501975,
        "Satellite Name": "Constellation 1 758",
        "Satellite Number": 758,
        "Semi-Major Axis(m)": 7083131.272910544,
        "Time(s)": 180
    },
    {
        "Altitude(m)": 703036.1773802213,
        "Argument of Periapsis(deg)": 0.010850589130418416,
        "Eccentricity": 0.0,
        "Inclination(deg)": 45.0,
        "Latitude(deg)": 3.752984942828791,
        "Longitude(deg)": -114.47665795246584,
        "Mean Anomaly(deg)": 174.62330638523176,
        "RAAN(deg)": 169.98975736103193,
        "Satellite Name": "Constellation 1 758",
        "Satellite Number": 758,
        "Semi-Major Axis(m)": 7083131.272910544,
        "Time(s)": 181
    },
    {
        "Altitude(m)": 703039.9864158472,
        "Argument of Periapsis(deg)": 0.01091053713666382,
        "Eccentricity": 0.0,
        "Inclination(deg)": 45.0,
        "Latitude(deg)": 3.7098566308673173,
        "Longitude(deg)": -114.43772279204808,
        "Mean Anomaly(deg)": 174.68400752548163,
        "RAAN(deg)": 169.98970077186638,
        "Satellite Name": "Constellation 1 758",
        "Satellite Number": 758,
        "Semi-Major Axis(m)": 7083131.272910544,
        "Time(s)": 182
    },
    {
        "Altitude(m)": 703043.8162959606,
        "Argument of Periapsis(deg)": 0.010970485142909228,
        "Eccentricity": 0.0,
        "Inclination(deg)": 45.0,
        "Latitude(deg)": 3.6667262349667795,
        "Longitude(deg)": -114.39879186131589,
        "Mean Anomaly(deg)": 174.7447086657315,
        "RAAN(deg)": 169.98964418270077,
        "Satellite Name": "Constellation 1 758",
        "Satellite Number": 758,
        "Semi-Major Axis(m)": 7083131.272910544,
        "Time(s)": 183
    },
    {
        "Altitude(m)": 703047.6670221513,
        "Argument of Periapsis(deg)": 0.011030433149154634,
        "Eccentricity": 0.0,
        "Inclination(deg)": 45.0,
        "Latitude(deg)": 3.6235937804219374,
        "Longitude(deg)": -114.35986511154557,
        "Mean Anomaly(deg)": 174.80540980598144,
        "RAAN(deg)": 169.98958759353522,
        "Satellite Name": "Constellation 1 758",
        "Satellite Number": 758,
        "Semi-Major Axis(m)": 7083131.272910544,
        "Time(s)": 184
    },
    {
        "Altitude(m)": 703051.5385959005,
        "Argument of Periapsis(deg)": 0.01109038115540004,
        "Eccentricity": 0.0,
        "Inclination(deg)": 45.0,
        "Latitude(deg)": 3.5804592925198815,
        "Longitude(deg)": -114.32094266212005,
        "Mean Anomaly(deg)": 174.86611094623132,
        "RAAN(deg)": 169.98953100436967,
        "Satellite Name": "Constellation 1 758",
        "Satellite Number": 758,
        "Semi-Major Axis(m)": 7083131.272910544,
        "Time(s)": 185
    },
    {
        "Altitude(m)": 703055.4310186127,
        "Argument of Periapsis(deg)": 0.011150329161645444,
        "Eccentricity": 0.0,
        "Inclination(deg)": 45.0,
        "Latitude(deg)": 3.5373227965389744,
        "Longitude(deg)": -114.2820241281405,
        "Mean Anomaly(deg)": 174.9268120864813,
        "RAAN(deg)": 169.98947441520409,
        "Satellite Name": "Constellation 1 758",
        "Satellite Number": 758,
        "Semi-Major Axis(m)": 7083131.272910544,
        "Time(s)": 186
    },
    {
        "Altitude(m)": 703059.344291573,
        "Argument of Periapsis(deg)": 0.01121027716789085,
        "Eccentricity": 0.0,
        "Inclination(deg)": 45.0,
        "Latitude(deg)": 3.4941843177504337,
        "Longitude(deg)": -114.24310962900847,
        "Mean Anomaly(deg)": 174.98751322673112,
        "RAAN(deg)": 169.9894178260385,
        "Satellite Name": "Constellation 1 758",
        "Satellite Number": 758,
        "Semi-Major Axis(m)": 7083131.272910544,
        "Time(s)": 187
    },
    {
        "Altitude(m)": 703063.2784160051,
        "Argument of Periapsis(deg)": 0.011270225174136258,
        "Eccentricity": 0.0,
        "Inclination(deg)": 45.0,
        "Latitude(deg)": 3.4510438814172693,
        "Longitude(deg)": -114.20419911603757,
        "Mean Anomaly(deg)": 175.04821436698103,
        "RAAN(deg)": 169.98936123687292,
        "Satellite Name": "Constellation 1 758",
        "Satellite Number": 758,
        "Semi-Major Axis(m)": 7083131.272910544,
        "Time(s)": 188
    },
    {
        "Altitude(m)": 703067.2333930152,
        "Argument of Periapsis(deg)": 0.011330173180381662,
        "Eccentricity": 0.0,
        "Inclination(deg)": 45.0,
        "Latitude(deg)": 3.407901512795027,
        "Longitude(deg)": -114.1652925405507,
        "Mean Anomaly(deg)": 175.10891550723093,
        "RAAN(deg)": 169.98930464770737,
        "Satellite Name": "Constellation 1 758",
        "Satellite Number": 758,
        "Semi-Major Axis(m)": 7083131.272910544,
        "Time(s)": 189
    }
]